NORAD_CAT_ID,OBJECT_NAME,OBJECT_TYPE,EPOCH,MEAN_MOTION,ECCENTRICITY,INCLINATION,RA_OF_ASC_NODE,ARG_OF_PERICENTER,MEAN_ANOMALY,BSTAR,MEAN_MOTION_DOT,MEAN_MOTION_DDOT,TLE_LINE0,TLE_LINE1,TLE_LINE2,SEMIMAJOR_AXIS,PERIOD,APOGEE,PERIGEE,DECAYED
54758.0,STARLINK-5464,PAYLOAD,2023-05-12 21:57:52,15.08847238,0.0001021,53.2183,351.1306,99.6485,260.4623,0.00013614,1.88e-05,0.0,0 STARLINK-5464,1 54758U 22175A   23132.91519316  .00001880  00000-0  13614-3 0  9997,2 54758  53.2183 351.1306 0001021  99.6485 260.4623 15.08847238 20783,6917.858,95.437,540.43,539.017,0.0
54758.0,STARLINK-5464,PAYLOAD,2023-05-13 20:13:17,15.08838544,0.0001224,53.218,346.9691,64.6137,295.4982,0.00014847,2.076e-05,0.0,0 STARLINK-5464,1 54758U 22175A   23133.84256062  .00002076  00000-0  14847-3 0  9993,2 54758  53.2180 346.9691 0001224  64.6137 295.4982 15.08838544 24364,6917.885,95.438,540.597,538.903,0.0
54758.0,STARLINK-5464,PAYLOAD,2023-05-13 21:48:40,15.08840636,0.000144,53.2187,346.6703,56.5963,303.5167,0.00013984,1.938e-05,0.0,0 STARLINK-5464,1 54758U 22175A   23133.90880014  .00001938  00000-0  13984-3 0  9997,2 54758  53.2187 346.6703 0001440  56.5963 303.5167 15.08840636 20939,6917.878,95.438,540.74,538.747,0.0
54758.0,STARLINK-5464,PAYLOAD,2023-05-14 20:04:04,15.08827027,0.00013,53.2196,342.5047,63.1995,296.9129,0.00027961,4.163e-05,0.0,0 STARLINK-5464,1 54758U 22175A   23134.83616372  .00004163  00000-0  27961-3 0  9997,2 54758  53.2196 342.5047 0001300  63.1995 296.9129 15.08827027 24519,6917.92,95.438,540.684,538.886,0.0
54758.0,STARLINK-5464,PAYLOAD,2023-05-14 21:39:28,15.08800563,0.0001534,53.22,342.2064,71.2636,288.8522,0.00070879,0.00010998,0.0,0 STARLINK-5464,1 54758U 22175A   23134.90240974  .00010998  00000-0  70879-3 0  9995,2 54758  53.2200 342.2064 0001534  71.2636 288.8522 15.08800563 21084,6918.001,95.44,540.927,538.805,0.0
54758.0,STARLINK-5464,PAYLOAD,2023-05-15 07:11:46,15.08827601,0.0001409,53.2192,340.4267,64.119,295.9947,0.00026158,3.876e-05,0.0,0 STARLINK-5464,1 54758U 22175A   23135.29984684  .00003876  00000-0  26158-3 0  9999,2 54758  53.2192 340.4267 0001409  64.1190 295.9947 15.08827601 24586,6917.918,95.438,540.758,538.809,0.0
54758.0,STARLINK-5464,PAYLOAD,2023-05-15 13:33:19,15.08837796,0.0001339,53.2188,339.2361,70.8543,289.2594,3.3709e-05,2.49e-06,0.0,0 STARLINK-5464,1 54758U 22175A   23135.56480360  .00000249  00000-0  33709-4 0  9993,2 54758  53.2188 339.2361 0001339  70.8543 289.2594 15.08837796 21183,6917.887,95.438,540.678,538.826,0.0
54758.0,STARLINK-5464,PAYLOAD,2023-05-15 19:54:51,15.08842451,0.00013,53.2186,338.0468,71.9864,288.127,1.5478e-05,-4.2e-07,0.0,0 STARLINK-5464,1 54758U 22175A   23135.82976102 -.00000042  00000-0  15478-4 0  9991,2 54758  53.2186 338.0468 0001300  71.9864 288.1270 15.08842451 24661,6917.873,95.437,540.637,538.839,0.0
54758.0,STARLINK-5464,PAYLOAD,2023-05-16 16:34:52,15.0882047,0.0001195,53.2176,334.1793,115.2856,244.8261,0.00019073,2.747e-05,0.0,0 STARLINK-5464,1 54758U 22175A   23136.69088855  .00002747  00000-0  19073-3 0  9993,2 54758  53.2176 334.1793 0001195 115.2856 244.8261 15.08820470 21352,6917.94,95.439,540.632,538.978,0.0
54758.0,STARLINK-5464,PAYLOAD,2023-05-17 02:07:10,15.08842699,0.0001072,53.2181,332.3935,123.6544,236.4551,0.00018652,2.682e-05,0.0,0 STARLINK-5464,1 54758U 22175A   23137.08831651  .00002682  00000-0  18652-3 0  9997,2 54758  53.2181 332.3935 0001072 123.6544 236.4551 15.08842699 21410,6917.872,95.437,540.479,538.996,0.0
54758.0,STARLINK-5464,PAYLOAD,2023-05-17 03:42:34,15.08835634,0.0001129,53.2176,332.0983,73.9472,286.1644,2.191e-05,6.1e-07,0.0,0 STARLINK-5464,1 54758U 22175A   23137.15456624  .00000061  00000-0  21910-4 0  9999,2 54758  53.2176 332.0983 0001129  73.9472 286.1644 15.08835634 21421,6917.894,95.438,540.54,538.978,0.0
54758.0,STARLINK-5464,PAYLOAD,2023-05-17 19:36:25,15.08842516,8.13e-05,53.2181,329.1241,80.1745,279.9339,0.00016652,2.364e-05,0.0,0 STARLINK-5464,1 54758U 22175A   23137.81695945  .00002364  00000-0  16652-3 0  9997,2 54758  53.2181 329.1241 0000813  80.1745 279.9339 15.08842516 21522,6917.873,95.437,540.3,539.175,0.0
54758.0,STARLINK-5464,PAYLOAD,2023-05-18 05:08:44,15.08835266,9.61e-05,53.2175,327.34,75.0237,285.0861,5.9985e-05,6.67e-06,0.0,0 STARLINK-5464,1 54758U 22175A   23138.21440653  .00000667  00000-0  59985-4 0  9997,2 54758  53.2175 327.3400 0000961  75.0237 285.0861 15.08835266 21583,6917.895,95.438,540.425,539.095,0.0
54758.0,STARLINK-5464,PAYLOAD,2023-05-18 19:27:12,15.08842826,6.38e-05,53.2173,324.6635,72.5593,287.5469,2.0375e-05,3.7e-07,0.0,0 STARLINK-5464,1 54758U 22175A   23138.81056102  .00000037  00000-0  20375-4 0  9997,2 54758  53.2173 324.6635 0000638  72.5593 287.5469 15.08842826 21670,6917.872,95.437,540.178,539.295,0.0
54758.0,STARLINK-5464,PAYLOAD,2023-05-18 21:02:35,15.08845955,9.23e-05,53.2175,324.3658,78.9343,281.1753,6.4194e-05,7.34e-06,0.0,0 STARLINK-5464,1 54758U 22175A   23138.87679979  .00000734  00000-0  64194-4 0  9997,2 54758  53.2175 324.3658 0000923  78.9343 281.1753 15.08845955 25120,6917.862,95.437,540.366,539.089,0.0
54758.0,STARLINK-5464,PAYLOAD,2023-05-19 14:31:50,15.08836265,9.52e-05,53.2174,321.0949,76.4801,283.6297,1.4699e-05,-5.4e-07,0.0,0 STARLINK-5464,1 54758U 22175A   23139.60544587 -.00000054  00000-0  14699-4 0  9996,2 54758  53.2174 321.0949 0000952  76.4801 283.6297 15.08836265 21793,6917.892,95.438,540.415,539.098,0.0
54758.0,STARLINK-5464,PAYLOAD,2023-05-19 20:53:22,15.08843576,8.79e-05,53.2173,319.9063,81.1267,278.9825,7.1937e-05,8.57e-06,0.0,0 STARLINK-5464,1 54758U 22175A   23139.87040216  .00000857  00000-0  71937-4 0  9993,2 54758  53.2173 319.9063 0000879  81.1267 278.9825 15.08843576 25276,6917.869,95.437,540.343,539.126,0.0
54758.0,STARLINK-5464,PAYLOAD,2023-05-20 19:08:46,15.08853865,9.45e-05,53.2156,315.7438,77.7457,282.3641,0.00029985,4.489e-05,0.0,0 STARLINK-5464,1 54758U 22175A   23140.79775785  .00004489  00000-0  29985-3 0  9992,2 54758  53.2156 315.7438 0000945  77.7457 282.3641 15.08853865 25416,6917.838,95.437,540.357,539.049,0.0
54758.0,STARLINK-5464,PAYLOAD,2023-05-21 04:41:05,15.08842042,0.0001011,53.2162,313.9582,88.3186,271.7922,0.0001332,1.833e-05,0.0,0 STARLINK-5464,1 54758U 22175A   23141.19520225  .00001833  00000-0  13320-3 0  9990,2 54758  53.2162 313.9582 0001011  88.3186 271.7922 15.08842042 22039,6917.874,95.437,540.439,539.04,0.0
54758.0,STARLINK-5464,PAYLOAD,2023-05-21 11:02:38,15.08829553,9.53e-05,53.2164,312.7701,91.1781,268.932,-8.7806e-05,-1.684e-05,0.0,0 STARLINK-5464,1 54758U 22175A   23141.46016789 -.00001684  00000-0 -87806-4 0  9992,2 54758  53.2164 312.7701 0000953  91.1781 268.9320 15.08829553 22074,6917.912,95.438,540.437,539.118,0.0
54758.0,STARLINK-5464,PAYLOAD,2023-05-21 20:34:57,15.08834001,8.39e-05,53.2168,310.9854,91.9932,268.1156,3.0955e-05,2.05e-06,0.0,0 STARLINK-5464,1 54758U 22175A   23141.85760823  .00000205  00000-0  30955-4 0  9999,2 54758  53.2168 310.9854 0000839  91.9932 268.1156 15.08834001 25577,6917.899,95.438,540.344,539.183,0.0
54758.0,STARLINK-5464,PAYLOAD,2023-05-22 04:31:53,15.08841471,7.78e-05,53.2167,309.4994,96.0863,264.0218,0.00044179,6.751e-05,0.0,0 STARLINK-5464,1 54758U 22175A   23142.18880856  .00006751  00000-0  44179-3 0  9999,2 54758  53.2167 309.4994 0000778  96.0863 264.0218 15.08841471 22182,6917.876,95.437,540.279,539.203,0.0
54758.0,STARLINK-5464,PAYLOAD,2023-05-22 20:25:43,15.08864225,8e-05,53.2168,306.5251,93.4987,266.6097,0.0010691,0.00016779,0.0,0 STARLINK-5464,1 54758U 22175A   23142.85120267  .00016779  00000-0  10691-2 0  9998,2 54758  53.2168 306.5251 0000800  93.4987 266.6097 15.08864225 25729,6917.806,95.436,540.225,539.118,0.0
54758.0,STARLINK-5464,PAYLOAD,2023-05-23 10:44:12,15.08849551,0.0001593,53.2169,303.8488,79.9717,280.1455,0.00039687,6.035e-05,0.0,0 STARLINK-5464,1 54758U 22175A   23143.44736708  .00006035  00000-0  39687-3 0  9998,2 54758  53.2169 303.8488 0001593  79.9717 280.1455 15.08849551 22374,6917.851,95.437,540.818,538.614,0.0
54758.0,STARLINK-5464,PAYLOAD,2023-05-23 17:05:45,15.0884603,0.0001155,53.2174,302.6593,80.7744,279.3379,0.00026825,3.985e-05,0.0,0 STARLINK-5464,1 54758U 22175A   23143.71232785  .00003985  00000-0  26825-3 0  9995,2 54758  53.2174 302.6593 0001155  80.7744 279.3379 15.08846030 25858,6917.862,95.437,540.526,538.928,0.0
54758.0,STARLINK-5464,PAYLOAD,2023-05-24 13:45:46,15.0884022,0.0001017,53.2182,298.7942,75.6742,284.4363,0.00043155,6.587e-05,0.0,0 STARLINK-5464,1 54758U 22175A   23144.57345208  .00006587  00000-0  43155-3 0  9991,2 54758  53.2182 298.7942 0001017  75.6742 284.4363 15.08840220 22546,6917.88,95.438,540.448,539.041,0.0
54758.0,STARLINK-5464,PAYLOAD,2023-05-25 15:11:56,15.08842162,9.56e-05,53.2175,294.0351,76.6556,283.4543,0.00021417,3.123e-05,0.0,0 STARLINK-5464,1 54758U 22175A   23145.63329163  .00003123  00000-0  21417-3 0  9991,2 54758  53.2175 294.0351 0000956  76.6556 283.4543 15.08842162 22700,6917.874,95.437,540.4,539.077,0.0
54758.0,STARLINK-5464,PAYLOAD,2023-05-25 19:58:05,15.08843952,9.69e-05,53.2178,293.1432,76.3552,283.7548,0.00019751,2.857e-05,0.0,0 STARLINK-5464,1 54758U 22175A   23145.83201041  .00002857  00000-0  19751-3 0  9998,2 54758  53.2178 293.1432 0000969  76.3552 283.7548 15.08843952 26171,6917.868,95.437,540.404,539.063,0.0
54758.0,STARLINK-5464,PAYLOAD,2023-05-26 13:27:20,15.08842154,0.0001015,53.2182,289.871,96.7554,263.3554,0.00010236,1.342e-05,0.0,0 STARLINK-5464,1 54758U 22175A   23146.56064997  .00001342  00000-0  10236-3 0  9993,2 54758  53.2182 289.8710 0001015  96.7554 263.3554 15.08842154 26284,6917.874,95.437,540.441,539.037,0.0
54758.0,STARLINK-5464,PAYLOAD,2023-05-26 16:38:06,15.08843711,9.79e-05,53.2183,289.2765,91.626,268.4845,0.00010514,1.386e-05,0.0,0 STARLINK-5464,1 54758U 22175A   23146.69312885  .00001386  00000-0  10514-3 0  9996,2 54758  53.2183 289.2765 0000979  91.6260 268.4845 15.08843711 22864,6917.869,95.437,540.411,539.057,0.0
